<?xml version="1.0" encoding="UTF-8"?>
<kml xmlns="http://www.opengis.net/kml/2.2">
  <Document>
    <name>Lynn’s LA</name>
    <description/>
    <Style id="icon-1899-006064-nodesc-normal">
      <IconStyle>
        <color>ff646000</color>
        <scale>1</scale>
        <Icon>
          <href>https://www.gstatic.com/mapspro/images/stock/503-wht-blank_maps.png</href>
        </Icon>
        <hotSpot x="32" xunits="pixels" y="64" yunits="insetPixels"/>
      </IconStyle>
      <LabelStyle>
        <scale>0</scale>
      </LabelStyle>
      <BalloonStyle>
        <text><![CDATA[<h3>$[name]</h3>]]></text>
      </BalloonStyle>
    </Style>
    <Style id="icon-1899-006064-nodesc-highlight">
      <IconStyle>
        <color>ff646000</color>
        <scale>1</scale>
        <Icon>
          <href>https://www.gstatic.com/mapspro/images/stock/503-wht-blank_maps.png</href>
        </Icon>
        <hotSpot x="32" xunits="pixels" y="64" yunits="insetPixels"/>
      </IconStyle>
      <LabelStyle>
        <scale>1</scale>
      </LabelStyle>
      <BalloonStyle>
        <text><![CDATA[<h3>$[name]</h3>]]></text>
      </BalloonStyle>
    </Style>
    <StyleMap id="icon-1899-006064-nodesc">
      <Pair>
        <key>normal</key>
        <styleUrl>#icon-1899-006064-nodesc-normal</styleUrl>
      </Pair>
      <Pair>
        <key>highlight</key>
        <styleUrl>#icon-1899-006064-nodesc-highlight</styleUrl>
      </Pair>
    </StyleMap>
    <Style id="icon-1899-C2185B-nodesc-normal">
      <IconStyle>
        <color>ff5b18c2</color>
        <scale>1</scale>
        <Icon>
          <href>https://www.gstatic.com/mapspro/images/stock/503-wht-blank_maps.png</href>
        </Icon>
        <hotSpot x="32" xunits="pixels" y="64" yunits="insetPixels"/>
      </IconStyle>
      <LabelStyle>
        <scale>0</scale>
      </LabelStyle>
      <BalloonStyle>
        <text><![CDATA[<h3>$[name]</h3>]]></text>
      </BalloonStyle>
    </Style>
    <Style id="icon-1899-C2185B-nodesc-highlight">
      <IconStyle>
        <color>ff5b18c2</color>
        <scale>1</scale>
        <Icon>
          <href>https://www.gstatic.com/mapspro/images/stock/503-wht-blank_maps.png</href>
        </Icon>
        <hotSpot x="32" xunits="pixels" y="64" yunits="insetPixels"/>
      </IconStyle>
      <LabelStyle>
        <scale>1</scale>
      </LabelStyle>
      <BalloonStyle>
        <text><![CDATA[<h3>$[name]</h3>]]></text>
      </BalloonStyle>
    </Style>
    <StyleMap id="icon-1899-C2185B-nodesc">
      <Pair>
        <key>normal</key>
        <styleUrl>#icon-1899-C2185B-nodesc-normal</styleUrl>
      </Pair>
      <Pair>
        <key>highlight</key>
        <styleUrl>#icon-1899-C2185B-nodesc-highlight</styleUrl>
      </Pair>
    </StyleMap>
    <Style id="icon-1899-E65100-normal">
      <IconStyle>
        <color>ff0051e6</color>
        <scale>1</scale>
        <Icon>
          <href>https://www.gstatic.com/mapspro/images/stock/503-wht-blank_maps.png</href>
        </Icon>
        <hotSpot x="32" xunits="pixels" y="64" yunits="insetPixels"/>
      </IconStyle>
      <LabelStyle>
        <scale>0</scale>
      </LabelStyle>
    </Style>
    <Style id="icon-1899-E65100-highlight">
      <IconStyle>
        <color>ff0051e6</color>
        <scale>1</scale>
        <Icon>
          <href>https://www.gstatic.com/mapspro/images/stock/503-wht-blank_maps.png</href>
        </Icon>
        <hotSpot x="32" xunits="pixels" y="64" yunits="insetPixels"/>
      </IconStyle>
      <LabelStyle>
        <scale>1</scale>
      </LabelStyle>
    </Style>
    <StyleMap id="icon-1899-E65100">
      <Pair>
        <key>normal</key>
        <styleUrl>#icon-1899-E65100-normal</styleUrl>
      </Pair>
      <Pair>
        <key>highlight</key>
        <styleUrl>#icon-1899-E65100-highlight</styleUrl>
      </Pair>
    </StyleMap>
    <Style id="icon-1899-E65100-nodesc-normal">
      <IconStyle>
        <color>ff0051e6</color>
        <scale>1</scale>
        <Icon>
          <href>https://www.gstatic.com/mapspro/images/stock/503-wht-blank_maps.png</href>
        </Icon>
        <hotSpot x="32" xunits="pixels" y="64" yunits="insetPixels"/>
      </IconStyle>
      <LabelStyle>
        <scale>0</scale>
      </LabelStyle>
      <BalloonStyle>
        <text><![CDATA[<h3>$[name]</h3>]]></text>
      </BalloonStyle>
    </Style>
    <Style id="icon-1899-E65100-nodesc-highlight">
      <IconStyle>
        <color>ff0051e6</color>
        <scale>1</scale>
        <Icon>
          <href>https://www.gstatic.com/mapspro/images/stock/503-wht-blank_maps.png</href>
        </Icon>
        <hotSpot x="32" xunits="pixels" y="64" yunits="insetPixels"/>
      </IconStyle>
      <LabelStyle>
        <scale>1</scale>
      </LabelStyle>
      <BalloonStyle>
        <text><![CDATA[<h3>$[name]</h3>]]></text>
      </BalloonStyle>
    </Style>
    <StyleMap id="icon-1899-E65100-nodesc">
      <Pair>
        <key>normal</key>
        <styleUrl>#icon-1899-E65100-nodesc-normal</styleUrl>
      </Pair>
      <Pair>
        <key>highlight</key>
        <styleUrl>#icon-1899-E65100-nodesc-highlight</styleUrl>
      </Pair>
    </StyleMap>
    <Style id="icon-1899-F9A825-labelson-nodesc">
      <IconStyle>
        <color>ff25a8f9</color>
        <scale>1</scale>
        <Icon>
          <href>https://www.gstatic.com/mapspro/images/stock/503-wht-blank_maps.png</href>
        </Icon>
        <hotSpot x="32" xunits="pixels" y="64" yunits="insetPixels"/>
      </IconStyle>
      <BalloonStyle>
        <text><![CDATA[<h3>$[name]</h3>]]></text>
      </BalloonStyle>
    </Style>
    <Style id="icon-1899-FFD600-labelson-nodesc">
      <IconStyle>
        <color>ff00d6ff</color>
        <scale>1</scale>
        <Icon>
          <href>https://www.gstatic.com/mapspro/images/stock/503-wht-blank_maps.png</href>
        </Icon>
        <hotSpot x="32" xunits="pixels" y="64" yunits="insetPixels"/>
      </IconStyle>
      <BalloonStyle>
        <text><![CDATA[<h3>$[name]</h3>]]></text>
      </BalloonStyle>
    </Style>
    <Folder>
      <name>Aug</name>
      <Placemark>
        <name>洛杉矶国际机场</name>
        <styleUrl>#icon-1899-FFD600-labelson-nodesc</styleUrl>
        <Point>
          <coordinates>
            -118.4036052,33.942153,0
          </coordinates>
        </Point>
      </Placemark>
      <Placemark>
        <name>Hotel Dena, Pasadena Los Angeles, a Tribute Portfolio Hotel</name>
        <styleUrl>#icon-1899-FFD600-labelson-nodesc</styleUrl>
        <Point>
          <coordinates>
            -118.1441316,34.142945,0
          </coordinates>
        </Point>
      </Placemark>
      <Placemark>
        <name>Miss Cheese Tea Cafe - Pasadena</name>
        <styleUrl>#icon-1899-FFD600-labelson-nodesc</styleUrl>
        <Point>
          <coordinates>
            -118.1472549,34.1421203,0
          </coordinates>
        </Point>
      </Placemark>
      <Placemark>
        <name>Arpeggio Pasadena Apartments</name>
        <styleUrl>#icon-1899-FFD600-labelson-nodesc</styleUrl>
        <Point>
          <coordinates>
            -118.1435365,34.1425326,0
          </coordinates>
        </Point>
      </Placemark>
      <Placemark>
        <name>Westgate Apartments</name>
        <styleUrl>#icon-1899-FFD600-labelson-nodesc</styleUrl>
        <Point>
          <coordinates>
            -118.152548,34.1417749,0
          </coordinates>
        </Point>
      </Placemark>
      <Placemark>
        <name>Target</name>
        <styleUrl>#icon-1899-FFD600-labelson-nodesc</styleUrl>
        <Point>
          <coordinates>
            -118.1345552,34.1464065,0
          </coordinates>
        </Point>
      </Placemark>
      <Placemark>
        <name>The Home Depot</name>
        <styleUrl>#icon-1899-FFD600-labelson-nodesc</styleUrl>
        <Point>
          <coordinates>
            -118.0905526,34.1490736,0
          </coordinates>
        </Point>
      </Placemark>
      <Placemark>
        <name>JCPenney</name>
        <styleUrl>#icon-1899-FFD600-labelson-nodesc</styleUrl>
        <Point>
          <coordinates>
            -118.05072,34.136421,0
          </coordinates>
        </Point>
      </Placemark>
      <Placemark>
        <name>好市多</name>
        <styleUrl>#icon-1899-FFD600-labelson-nodesc</styleUrl>
        <Point>
          <coordinates>
            -117.9255449,34.1318686,0
          </coordinates>
        </Point>
      </Placemark>
      <Placemark>
        <name>金凱旋宮</name>
        <styleUrl>#icon-1899-FFD600-labelson-nodesc</styleUrl>
        <Point>
          <coordinates>
            -118.1321981,34.0922794,0
          </coordinates>
        </Point>
      </Placemark>
      <Placemark>
        <name>大華超級市場</name>
        <styleUrl>#icon-1899-FFD600-labelson-nodesc</styleUrl>
        <Point>
          <coordinates>
            -118.1234546,34.0976923,0
          </coordinates>
        </Point>
      </Placemark>
      <Placemark>
        <name>Beckman Lawn</name>
        <styleUrl>#icon-1899-FFD600-labelson-nodesc</styleUrl>
        <Point>
          <coordinates>
            -118.1274462,34.1392865,0
          </coordinates>
        </Point>
      </Placemark>
      <Placemark>
        <name>Los Angeles Central Library</name>
        <styleUrl>#icon-1899-FFD600-labelson-nodesc</styleUrl>
        <Point>
          <coordinates>
            -118.2549464,34.0503317,0
          </coordinates>
        </Point>
      </Placemark>
      <Placemark>
        <name>帕萨迪纳市政厅</name>
        <styleUrl>#icon-1899-FFD600-labelson-nodesc</styleUrl>
        <Point>
          <coordinates>
            -118.1438373,34.1475986,0
          </coordinates>
        </Point>
      </Placemark>
      <Placemark>
        <name>圣莫尼卡</name>
        <styleUrl>#icon-1899-FFD600-labelson-nodesc</styleUrl>
        <Point>
          <coordinates>
            -118.4915504,34.0118828,0
          </coordinates>
        </Point>
      </Placemark>
      <Placemark>
        <name>比佛利山</name>
        <styleUrl>#icon-1899-FFD600-labelson-nodesc</styleUrl>
        <Point>
          <coordinates>
            -118.4016265,34.0730715,0
          </coordinates>
        </Point>
      </Placemark>
      <Placemark>
        <name>新加迪纳酒店</name>
        <styleUrl>#icon-1899-FFD600-labelson-nodesc</styleUrl>
        <Point>
          <coordinates>
            -118.3059639,33.8899389,0
          </coordinates>
        </Point>
      </Placemark>
      <Placemark>
        <name>Beijing Tasty House</name>
        <styleUrl>#icon-1899-FFD600-labelson-nodesc</styleUrl>
        <Point>
          <coordinates>
            -118.0981549,34.0795822,0
          </coordinates>
        </Point>
      </Placemark>
      <Placemark>
        <name>IKEA Restaurant</name>
        <styleUrl>#icon-1899-FFD600-labelson-nodesc</styleUrl>
        <Point>
          <coordinates>
            -117.879538,34.074239,0
          </coordinates>
        </Point>
      </Placemark>
      <Placemark>
        <name><![CDATA[Fleming’s Prime Steakhouse & Wine Bar]]></name>
        <styleUrl>#icon-1899-FFD600-labelson-nodesc</styleUrl>
        <Point>
          <coordinates>
            -118.1462892,34.1461002,0
          </coordinates>
        </Point>
      </Placemark>
    </Folder>
    <Folder>
      <name>Sep</name>
      <Placemark>
        <name>All Saints Episcopal Church</name>
        <styleUrl>#icon-1899-F9A825-labelson-nodesc</styleUrl>
        <Point>
          <coordinates>
            -118.1424893,34.1478927,0
          </coordinates>
        </Point>
      </Placemark>
      <Placemark>
        <name>好莱坞星光大道</name>
        <styleUrl>#icon-1899-F9A825-labelson-nodesc</styleUrl>
        <Point>
          <coordinates>
            -118.3255647,34.0985259,0
          </coordinates>
        </Point>
      </Placemark>
      <Placemark>
        <name>圣莫尼卡码头</name>
        <styleUrl>#icon-1899-F9A825-labelson-nodesc</styleUrl>
        <Point>
          <coordinates>
            -118.4987585,34.0082821,0
          </coordinates>
        </Point>
      </Placemark>
      <Placemark>
        <name>茉莉奶白 SG店</name>
        <styleUrl>#icon-1899-F9A825-labelson-nodesc</styleUrl>
        <Point>
          <coordinates>
            -118.1064977,34.0797025,0
          </coordinates>
        </Point>
      </Placemark>
      <Placemark>
        <name>Art Center College of Design Student Store</name>
        <styleUrl>#icon-1899-F9A825-labelson-nodesc</styleUrl>
        <Point>
          <coordinates>
            -118.1853127,34.1695979,0
          </coordinates>
        </Point>
      </Placemark>
      <Placemark>
        <name>玫瑰杯球场</name>
        <styleUrl>#icon-1899-F9A825-labelson-nodesc</styleUrl>
        <Point>
          <coordinates>
            -118.1676462,34.1613284,0
          </coordinates>
        </Point>
      </Placemark>
      <Placemark>
        <name>梅尔罗斯大道</name>
        <styleUrl>#icon-1899-F9A825-labelson-nodesc</styleUrl>
        <Point>
          <coordinates>
            -118.3291414,34.0834997,0
          </coordinates>
        </Point>
      </Placemark>
      <Placemark>
        <name>LA Fitness 健身房</name>
        <styleUrl>#icon-1899-F9A825-labelson-nodesc</styleUrl>
        <Point>
          <coordinates>
            -118.1328406,34.1421887,0
          </coordinates>
        </Point>
      </Placemark>
      <Placemark>
        <name>USC Village</name>
        <styleUrl>#icon-1899-F9A825-labelson-nodesc</styleUrl>
        <Point>
          <coordinates>
            -118.2841348,34.0248391,0
          </coordinates>
        </Point>
      </Placemark>
      <Placemark>
        <name>Grand Avenue</name>
        <styleUrl>#icon-1899-F9A825-labelson-nodesc</styleUrl>
        <Point>
          <coordinates>
            -118.2639671,34.0394734,0
          </coordinates>
        </Point>
      </Placemark>
      <Placemark>
        <name>华特·迪士尼音乐厅</name>
        <styleUrl>#icon-1899-F9A825-labelson-nodesc</styleUrl>
        <Point>
          <coordinates>
            -118.249845,34.0553454,0
          </coordinates>
        </Point>
      </Placemark>
      <Placemark>
        <name>天使飞翔铁路</name>
        <styleUrl>#icon-1899-F9A825-labelson-nodesc</styleUrl>
        <Point>
          <coordinates>
            -118.2506142,34.0516174,0
          </coordinates>
        </Point>
      </Placemark>
      <Placemark>
        <name>Gloria Molina Grand Park</name>
        <styleUrl>#icon-1899-F9A825-labelson-nodesc</styleUrl>
        <Point>
          <coordinates>
            -118.2467713,34.0563289,0
          </coordinates>
        </Point>
      </Placemark>
      <Placemark>
        <name>Chinatown Central Plaza</name>
        <styleUrl>#icon-1899-F9A825-labelson-nodesc</styleUrl>
        <Point>
          <coordinates>
            -118.237499,34.065226,0
          </coordinates>
        </Point>
      </Placemark>
      <Placemark>
        <name>韓國城</name>
        <styleUrl>#icon-1899-F9A825-labelson-nodesc</styleUrl>
        <Point>
          <coordinates>
            -118.3016139,34.0635788,0
          </coordinates>
        </Point>
      </Placemark>
      <Placemark>
        <name>小东京</name>
        <styleUrl>#icon-1899-F9A825-labelson-nodesc</styleUrl>
        <Point>
          <coordinates>
            -118.2395052,34.0523392,0
          </coordinates>
        </Point>
      </Placemark>
      <Placemark>
        <name>洛杉矶市政厅</name>
        <styleUrl>#icon-1899-F9A825-labelson-nodesc</styleUrl>
        <Point>
          <coordinates>
            -118.2426533,34.0537136,0
          </coordinates>
        </Point>
      </Placemark>
      <Placemark>
        <name>Historic Broadway Station</name>
        <styleUrl>#icon-1899-F9A825-labelson-nodesc</styleUrl>
        <Point>
          <coordinates>
            -118.2465632,34.0520316,0
          </coordinates>
        </Point>
      </Placemark>
      <Placemark>
        <name>Lincoln Heights Branch Library</name>
        <styleUrl>#icon-1899-F9A825-labelson-nodesc</styleUrl>
        <Point>
          <coordinates>
            -118.2140063,34.0761642,0
          </coordinates>
        </Point>
      </Placemark>
      <Placemark>
        <name>Garfield Park Playground</name>
        <styleUrl>#icon-1899-F9A825-labelson-nodesc</styleUrl>
        <Point>
          <coordinates>
            -118.1468133,34.116652,0
          </coordinates>
        </Point>
      </Placemark>
      <Placemark>
        <name>Los Angeles Central Library</name>
        <styleUrl>#icon-1899-F9A825-labelson-nodesc</styleUrl>
        <Point>
          <coordinates>
            -118.2549464,34.0503317,0
          </coordinates>
        </Point>
      </Placemark>
    </Folder>
    <Folder>
      <name>Oct</name>
      <Placemark>
        <name>格里菲斯天文台</name>
        <styleUrl>#icon-1899-E65100-nodesc</styleUrl>
        <Point>
          <coordinates>
            -118.3003935,34.1184341,0
          </coordinates>
        </Point>
      </Placemark>
      <Placemark>
        <name>巴恩斯德尔艺术公园</name>
        <description>dating，birthday，dogs，party，talk,  take photo,</description>
        <styleUrl>#icon-1899-E65100</styleUrl>
        <Point>
          <coordinates>
            -118.2943922,34.1004008,0
          </coordinates>
        </Point>
      </Placemark>
      <Placemark>
        <name>In-N-Out Burger</name>
        <styleUrl>#icon-1899-E65100-nodesc</styleUrl>
        <Point>
          <coordinates>
            -118.2273294,34.1486551,0
          </coordinates>
        </Point>
      </Placemark>
      <Placemark>
        <name>廚藝</name>
        <styleUrl>#icon-1899-E65100-nodesc</styleUrl>
        <Point>
          <coordinates>
            -118.1195897,34.0789907,0
          </coordinates>
        </Point>
      </Placemark>
      <Placemark>
        <name>99 Ranch Market</name>
        <styleUrl>#icon-1899-E65100-nodesc</styleUrl>
        <Point>
          <coordinates>
            -118.0591926,34.1238998,0
          </coordinates>
        </Point>
      </Placemark>
      <Placemark>
        <name>艺术中心设计学院南校区</name>
        <styleUrl>#icon-1899-E65100-nodesc</styleUrl>
        <Point>
          <coordinates>
            -118.1482548,34.1291183,0
          </coordinates>
        </Point>
      </Placemark>
      <Placemark>
        <name>Kwan Kitchen</name>
        <styleUrl>#icon-1899-E65100-nodesc</styleUrl>
        <Point>
          <coordinates>
            -118.1477869,34.1322763,0
          </coordinates>
        </Point>
      </Placemark>
      <Placemark>
        <name>旺角酒家</name>
        <styleUrl>#icon-1899-E65100-nodesc</styleUrl>
        <Point>
          <coordinates>
            -118.2376416,34.0618552,0
          </coordinates>
        </Point>
      </Placemark>
      <Placemark>
        <name>Thai Town</name>
        <styleUrl>#icon-1899-E65100-nodesc</styleUrl>
        <Point>
          <coordinates>
            -118.3035723,34.1018097,0
          </coordinates>
        </Point>
      </Placemark>
      <Placemark>
        <name>Ross Dress for Less</name>
        <styleUrl>#icon-1899-E65100-nodesc</styleUrl>
        <Point>
          <coordinates>
            -118.2469276,34.1495652,0
          </coordinates>
        </Point>
      </Placemark>
      <Placemark>
        <name>Dollar Tree</name>
        <styleUrl>#icon-1899-E65100-nodesc</styleUrl>
        <Point>
          <coordinates>
            -118.2465016,34.1471576,0
          </coordinates>
        </Point>
      </Placemark>
      <Placemark>
        <name>Fillmore</name>
        <styleUrl>#icon-1899-E65100-nodesc</styleUrl>
        <Point>
          <coordinates>
            -118.148125,34.133522,0
          </coordinates>
        </Point>
      </Placemark>
    </Folder>
    <Folder>
      <name>Cafe</name>
      <Placemark>
        <name>Highlight Coffee</name>
        <styleUrl>#icon-1899-C2185B-nodesc</styleUrl>
        <Point>
          <coordinates>
            -118.2467851,34.1465422,0
          </coordinates>
        </Point>
      </Placemark>
      <Placemark>
        <name>Philz Coffee</name>
        <styleUrl>#icon-1899-C2185B-nodesc</styleUrl>
        <Point>
          <coordinates>
            -118.2593603,34.0465664,0
          </coordinates>
        </Point>
      </Placemark>
      <Placemark>
        <name><![CDATA[The Coffee Bean & Tea Leaf]]></name>
        <styleUrl>#icon-1899-C2185B-nodesc</styleUrl>
        <Point>
          <coordinates>
            -118.2556407,34.049866,0
          </coordinates>
        </Point>
      </Placemark>
      <Placemark>
        <name><![CDATA[Vroman's Bookstore书店]]></name>
        <styleUrl>#icon-1899-C2185B-nodesc</styleUrl>
        <Point>
          <coordinates>
            -118.1360919,34.1460773,0
          </coordinates>
        </Point>
      </Placemark>
      <Placemark>
        <name>Starbucks</name>
        <styleUrl>#icon-1899-C2185B-nodesc</styleUrl>
        <Point>
          <coordinates>
            -118.25364,34.05019,0
          </coordinates>
        </Point>
      </Placemark>
      <Placemark>
        <name><![CDATA[The Coffee Bean & Tea Leaf]]></name>
        <styleUrl>#icon-1899-C2185B-nodesc</styleUrl>
        <Point>
          <coordinates>
            -118.2451134,34.150134,0
          </coordinates>
        </Point>
      </Placemark>
      <Placemark>
        <name>Crumbles Patisserie</name>
        <styleUrl>#icon-1899-C2185B-nodesc</styleUrl>
        <Point>
          <coordinates>
            -118.2447648,34.1514008,0
          </coordinates>
        </Point>
      </Placemark>
      <Placemark>
        <name>Capital One Café</name>
        <styleUrl>#icon-1899-C2185B-nodesc</styleUrl>
        <Point>
          <coordinates>
            -118.2553345,34.1445961,0
          </coordinates>
        </Point>
      </Placemark>
      <Placemark>
        <name>Copa Vida</name>
        <styleUrl>#icon-1899-C2185B-nodesc</styleUrl>
        <Point>
          <coordinates>
            -118.1486833,34.1447129,0
          </coordinates>
        </Point>
      </Placemark>
      <Placemark>
        <name>Intelligentsia Coffee Pasadena Coffeebar</name>
        <styleUrl>#icon-1899-C2185B-nodesc</styleUrl>
        <Point>
          <coordinates>
            -118.1492912,34.1459474,0
          </coordinates>
        </Point>
      </Placemark>
      <Placemark>
        <name>Civil Coffee</name>
        <styleUrl>#icon-1899-C2185B-nodesc</styleUrl>
        <Point>
          <coordinates>
            -118.1934501,34.1095565,0
          </coordinates>
        </Point>
      </Placemark>
    </Folder>
    <Folder>
      <name>Library</name>
      <Placemark>
        <name>Glendale Central Library</name>
        <styleUrl>#icon-1899-006064-nodesc</styleUrl>
        <Point>
          <coordinates>
            -118.2535921,34.1440599,0
          </coordinates>
        </Point>
      </Placemark>
      <Placemark>
        <name>PCC Library</name>
        <styleUrl>#icon-1899-006064-nodesc</styleUrl>
        <Point>
          <coordinates>
            -118.1168303,34.1452756,0
          </coordinates>
        </Point>
      </Placemark>
      <Placemark>
        <name>Los Angeles Central Library</name>
        <styleUrl>#icon-1899-006064-nodesc</styleUrl>
        <Point>
          <coordinates>
            -118.2549464,34.0503317,0
          </coordinates>
        </Point>
      </Placemark>
      <Placemark>
        <name>Lincoln Heights Branch Library</name>
        <styleUrl>#icon-1899-006064-nodesc</styleUrl>
        <Point>
          <coordinates>
            -118.2140063,34.0761642,0
          </coordinates>
        </Point>
      </Placemark>
      <Placemark>
        <name>Caltech Hall</name>
        <styleUrl>#icon-1899-006064-nodesc</styleUrl>
        <Point>
          <coordinates>
            -118.1260889,34.1368595,0
          </coordinates>
        </Point>
      </Placemark>
      <Placemark>
        <name>汉庭顿图书馆</name>
        <styleUrl>#icon-1899-006064-nodesc</styleUrl>
        <Point>
          <coordinates>
            -118.1145242,34.1290452,0
          </coordinates>
        </Point>
      </Placemark>
      <Placemark>
        <name>Arroyo Seco Regional Branch Library</name>
        <styleUrl>#icon-1899-006064-nodesc</styleUrl>
        <Point>
          <coordinates>
            -118.1863337,34.1138344,0
          </coordinates>
        </Point>
      </Placemark>
      <Placemark>
        <name>South Pasadena Public Library</name>
        <styleUrl>#icon-1899-006064-nodesc</styleUrl>
        <Point>
          <coordinates>
            -118.1558454,34.1141152,0
          </coordinates>
        </Point>
      </Placemark>
    </Folder>
  </Document>
</kml>
